#aV2019 12 20  0  0  0.00000000     288 DD+AD WGS84 FIT  NGA
## 2084 432000.00000000   300.00000000 58837 0.0000000000000
+   32     1  2  3  4  5  6  7  8  9 10 11 12 13 14 15 16 17
+         18 19 20 21 22 23 24 25 26 27 28 29 30 31 32  0  0
+          0  0  0  0  0  0  0  0  0  0  0  0  0  0  0  0  0
+          0  0  0  0  0  0  0  0  0  0  0  0  0  0  0  0  0
+          0  0  0  0  0  0  0  0  0  0  0  0  0  0  0  0  0
++         2  2  2  2  2  2  2  2  2  2  2  2  2  2  2  2  2
++         2  2  2  2  2  2  2  2  2  2  2  2  2  2  2  0  0
++         0  0  0  0  0  0  0  0  0  0  0  0  0  0  0  0  0
++         0  0  0  0  0  0  0  0  0  0  0  0  0  0  0  0  0
++         0  0  0  0  0  0  0  0  0  0  0  0  0  0  0  0  0
%c cc cc ccc ccc cccc cccc cccc cccc ccccc ccccc ccccc ccccc
%c cc cc ccc ccc cccc cccc cccc cccc ccccc ccccc ccccc ccccc
%f  0.0000000  0.000000000  0.00000000000  0.000000000000000
%f  0.0000000  0.000000000  0.00000000000  0.000000000000000
%i    0    0    0    0      0      0      0      0         0
%i    0    0    0    0      0      0      0      0         0
/*      NGA, ST. LOUIS,MO.                                  
/*   EPHEMERIS COMPUTED FROM 2 DAYS OF DATA                 
/*   EPOCHA v5 SMOOTHER                                     
/*   G1762 IERS2010 SATAF SATAPC                            
*  2019 12 20 21 20  0.00000000
P  1 -18684.095782 -14161.767931 -12988.659542   -236.139731                    
V  1  15852.392755   2727.146676 -25875.564968     -0.122998                    
P  2  -3854.163529  15114.464991  22128.882929   -370.212587                    
V  2 -26092.747923  -5251.406507  -1095.803139     -0.073720                    
P  3 -13312.298057 -20235.115947  10941.807468    -56.554435                    
V  3  -1416.272999 -14063.079191 -27491.249140     -0.069522                    
P  4 -10416.674916 -11133.797804  21754.946093    -23.139321                    
V  4  20106.496829 -18925.045090    -75.359508     -0.048389                    
P  5   1585.476053  25115.076511   8040.850881     -4.965749                    
V  5  -5974.244267  -9127.788485  29383.410098     -0.005117                    
P  6 -17423.198728   8187.577200  18363.340082   -159.319342                    
V  6 -22075.492388  -7101.975993 -17798.835086     -0.109581                    
P  7 -26096.026353  -5680.192268  -2196.000201   -174.292116                    
V  7  -2274.451872  -3357.359190  31139.508746     -0.082056                    
P  8  -1454.212585 -17781.207046 -19564.043539    -17.435867                    
V  8  18263.072870 -17070.402630  14354.703330     -0.013095                    
P  9 -18276.614006   -761.560693  19203.063886   -113.002482                    
V  9  16022.238586 -18627.951710  14459.219921     -0.092931                    
P 10  13376.622484  -7693.291477 -21525.751329   -179.612411                    
V 10   7734.855494  26406.590863  -4839.836536     -0.140967                    
P 11 -16428.247071 -11002.312511 -18084.465415   -413.628083                    
V 11  21406.187905  -6661.573689 -16134.901211      0.109093                    
P 12   9559.186514  23766.673048   7127.911906    171.098403                    
V 12   -146.821811   9492.306597 -30347.856650     -0.040492                    
P 13  -7991.690210  19936.655690 -15697.647821    -25.374718                    
V 13 -16685.883683  10675.293216  22302.627010      0.024560                    
P 14  17604.197125 -19289.223141   4589.560300    -43.667432                    
V 14   6029.769954  -1341.287413 -31143.634237      0.022358                    
P 15   4601.151339  17570.229715 -19560.686198   -264.298456                    
V 15 -16741.326156  17880.850740  12702.460282      0.026373                    
P 16   1740.994661 -24619.561270   8994.586494   -105.065704                    
V 16   4418.438929  11210.347031  29628.972239     -0.039007                    
P 17 -21523.657907  14245.742724  -5678.202660    184.241771                    
V 17   4351.135913  -6772.892901 -31217.489667      0.067661                    
P 18 -11006.233399 -15844.463351 -18799.003557    107.993694                    
V 18  22607.255066   3370.864721 -16434.132708      0.025293                    
P 19 -20131.532878  17291.032623    956.987416   -223.624893                    
V 19  -2567.645921   -663.216991 -32181.889644      0.051601                    
P 20  17372.079986   3233.993150 -19978.666560    527.684706                    
V 20   8506.632062  23762.037687  11096.676474      0.000539                    
P 21  25888.164912   2156.932582  -4130.563892    -67.913876                    
V 21   5491.277502   4513.835885  31104.389779      0.056950                    
P 22 -11261.929851 -23905.588297   3404.315228   -778.513837                    
V 22   2069.391943  -5064.374018 -30574.413481     -0.018318                    
P 23 -12628.933699  -9561.928865  21685.456950   -148.319335                    
V 23  18445.050329 -19396.690695   1842.362141      0.023818                    
P 24  17335.081476  14430.306842 -14486.287065     -6.469243                    
V 24 -18103.195858  -1346.704160 -22938.362977     -0.005166                    
P 25  15668.714795  12672.871250  17217.984821    -17.197733                    
V 25   4288.227530  21805.862346 -19441.111790      0.003127                    
P 26   6856.983083 -19177.965976  16916.026876    109.927423                    
V 26   8293.834873  20094.656090  19602.134669      0.081470                    
P 27   9360.029400 -21370.362451 -12502.718733   -156.475906                    
V 27  12581.834172  -9748.978649  26631.711537     -0.115771                    
P 28 -12887.518758   8418.110435 -21065.448448    749.601813                    
V 28  -5344.073417 -27586.873635  -7417.590084     -0.019184                    
P 29  17461.372548   2197.419758  19869.745971     13.384681                    
V 29 -18377.780600  17298.799418  14194.736586     -0.097756                    
P 30 -23207.165203   2658.876565 -12793.032495   -110.455339                    
V 30 -14768.060709  -7321.812439  25014.207894     -0.086647                    
P 31  15853.436810  -9407.107161  19258.257728    -11.124768                    
V 31  23052.143623   7973.583735 -14605.383592     -0.025497                    
P 32  20803.210667 -15294.710590  -5854.683692    161.367722                    
V 32  -3162.480731   7468.396875 -30562.012615      0.112434                    
EOF
